[{"OBJECT_NAME":"STARLINK-31046","OBJECT_ID":"2023-192X","EPOCH":"2026-03-09T09:13:58.292544","MEAN_MOTION":15.30187773,"ECCENTRICITY":0.00012906,"INCLINATION":53.1612,"RA_OF_ASC_NODE":64.5084,"ARG_OF_PERICENTER":99.6987,"MEAN_ANOMALY":260.416,"EPHEMERIS_TYPE":0,"CLASSIFICATION_TYPE":"U","NORAD_CAT_ID":58552,"ELEMENT_SET_NO":999,"REV_AT_EPOCH":12593,"BSTAR":2.138889e-6,"MEAN_MOTION_DOT":-2.96e-6,"MEAN_MOTION_DDOT":0},{"OBJECT_NAME":"LYNK TOWER 5","OBJECT_ID":"2024-043Z","EPOCH":"2026-03-09T22:11:51.175104","MEAN_MOTION":15.29454506,"ECCENTRICITY":0.00104056,"INCLINATION":97.5458,"RA_OF_ASC_NODE":204.7305,"ARG_OF_PERICENTER":234.6422,"MEAN_ANOMALY":125.3846,"EPHEMERIS_TYPE":0,"CLASSIFICATION_TYPE":"U","NORAD_CAT_ID":59121,"ELEMENT_SET_NO":999,"REV_AT_EPOCH":11186,"BSTAR":0.00031901545,"MEAN_MOTION_DOT":9.048e-5,"MEAN_MOTION_DDOT":0}]
